$$SOE
2460721.500000000, A.D. 2025-Feb-15 00:00:00.0000, -2.437770239576592E+08, -3.465601837430493E+08, -3.272855832494609E+07,
2460728.500000000, A.D. 2025-Feb-22 00:00:00.0000, -2.357269992592351E+08, -3.518628670307762E+08, -3.285945647872366E+07,
2460735.500000000, A.D. 2025-Mar-01 00:00:00.0000, -2.275276931809933E+08, -3.569427875178338E+08, -3.296954507817124E+07,
2460742.500000000, A.D. 2025-Mar-08 00:00:00.0000, -2.191840670037746E+08, -3.617963694233627E+08, -3.305872161748055E+07,
2460749.500000000, A.D. 2025-Mar-15 00:00:00.0000, -2.107011393141648E+08, -3.664200866649268E+08, -3.312688914110801E+07,
2460756.500000000, A.D. 2025-Mar-22 00:00:00.0000, -2.020839909567741E+08, -3.708104616928639E+08, -3.317395603114544E+07,
2460763.500000000, A.D. 2025-Mar-29 00:00:00.0000, -1.933377687346775E+08, -3.749640667583241E+08, -3.319983612030591E+07,
2460770.500000000, A.D. 2025-Apr-05 00:00:00.0000, -1.844676875328664E+08, -3.788775244836781E+08, -3.320444890481864E+07,
2460777.500000000, A.D. 2025-Apr-12 00:00:00.0000, -1.754790327909956E+08, -3.825475076374739E+08, -3.318771967285305E+07,
2460784.500000000, A.D. 2025-Apr-19 00:00:00.0000, -1.663771635127496E+08, -3.859707390010616E+08, -3.314957960400388E+07,
2460791.500000000, A.D. 2025-Apr-26 00:00:00.0000, -1.571675155401161E+08, -3.891439915355340E+08, -3.308996588194984E+07,
2460798.500000000, A.D. 2025-May-03 00:00:00.0000, -1.478556049783796E+08, -3.920640888354242E+08, -3.300882182964659E+07,
2460805.500000000, A.D. 2025-May-10 00:00:00.0000, -1.384470317420307E+08, -3.947279058664444E+08, -3.290609706936133E+07,
2460812.500000000, A.D. 2025-May-17 00:00:00.0000, -1.289474831826104E+08, -3.971323700351083E+08, -3.278174771463862E+07,
2460819.500000000, A.D. 2025-May-24 00:00:00.0000, -1.193627376213704E+08, -3.992744626534837E+08, -3.263573661520165E+07,
2460826.500000000, A.D. 2025-May-31 00:00:00.0000, -1.096986673659298E+08, -4.011512204996036E+08, -3.246803366869578E+07,
2460833.500000000, A.D. 2025-Jun-07 00:00:00.0000, -9.996124161002029E+07, -4.027597362818337E+08, -3.227861606518596E+07,
2460840.500000000, A.D. 2025-Jun-14 00:00:00.0000, -9.015653157931384E+07, -4.040971586865242E+08, -3.206746830295160E+07,
2460847.500000000, A.D. 2025-Jun-21 00:00:00.0000, -8.029071670353088E+07, -4.051606952928730E+08, -3.183458235532305E+07,
2460854.500000000, A.D. 2025-Jun-28 00:00:00.0000, -7.037008868262279E+07, -4.059476166053259E+08, -3.157995813217127E+07,
2460861.500000000, A.D. 2025-Jul-05 00:00:00.0000, -6.040105495942462E+07, -4.064552590635065E+08, -3.130360392162398E+07,
2460868.500000000, A.D. 2025-Jul-12 00:00:00.0000, -5.039014278466350E+07, -4.066810278519980E+08, -3.100553676954591E+07,
2460875.500000000, A.D. 2025-Jul-19 00:00:00.0000, -4.034400367891240E+07, -4.066224001029301E+08, -3.068578286223781E+07,
2460882.500000000, A.D. 2025-Jul-26 00:00:00.0000, -3.026941807489534E+07, -4.062769285664942E+08, -3.034437793734244E+07,
2460889.500000000, A.D. 2025-Aug-02 00:00:00.0000, -2.017330006657743E+07, -4.056422457469988E+08, -2.998136772833169E+07,
2460896.500000000, A.D. 2025-Aug-09 00:00:00.0000, -1.006270223159445E+07, -4.047160685398644E+08, -2.959680844712773E+07,
2460903.500000000, A.D. 2025-Aug-16 00:00:00.0000, 5.517956136150976E+04, -4.034962034555315E+08, -2.919076731829745E+07,
2460910.500000000, A.D. 2025-Aug-23 00:00:00.0000, 1.017300166546123E+07, -4.019805524379817E+08, -2.876332319141829E+07,
2460917.500000000, A.D. 2025-Aug-30 00:00:00.0000, 2.028326883215509E+07, -4.001671185888891E+08, -2.831456720443293E+07,
2460924.500000000, A.D. 2025-Sep-06 00:00:00.0000, 3.037832964928193E+07, -3.980540108224400E+08, -2.784460328708106E+07,
2460931.500000000, A.D. 2025-Sep-13 00:00:00.0000, 4.045036958944881E+07, -3.956394499586760E+08, -2.735354855498436E+07,
2460938.500000000, A.D. 2025-Sep-20 00:00:00.0000, 5.049140496520613E+07, -3.929217779265434E+08, -2.684153403011030E+07,
2460945.500000000, A.D. 2025-Sep-27 00:00:00.0000, 6.049327887572441E+07, -3.898994669953651E+08, -2.630870553169635E+07,
2460952.500000000, A.D. 2025-Oct-04 00:00:00.0000, 7.044765715675409E+07, -3.865711285269753E+08, -2.575522450977710E+07,
2460959.500000000, A.D. 2025-Oct-11 00:00:00.0000, 8.034602399206164E+07, -3.829355222229694E+08, -2.518126886521995E+07,
2460966.500000000, A.D. 2025-Oct-18 00:00:00.0000, 9.017967750578220E+07, -3.789915661733045E+08, -2.458703380580366E+07,
2460973.500000000, A.D. 2025-Oct-25 00:00:00.0000, 9.993972551508495E+07, -3.747383477271686E+08, -2.397273275128400E+07,
2460980.500000000, A.D. 2025-Nov-01 00:00:00.0000, 1.096170815272367E+08, -3.701751352020088E+08, -2.333859829080744E+07,
2460987.500000000, A.D. 2025-Nov-08 00:00:00.0000, 1.192024610662966E+08, -3.653013904931790E+08, -2.268488319941297E+07,
2460994.500000000, A.D. 2025-Nov-15 00:00:00.0000, 1.286863785345386E+08, -3.601167826746820E+08, -2.201186153290462E+07,
2461001.500000000, A.D. 2025-Nov-22 00:00:00.0000, 1.380591450743831E+08, -3.546212024038178E+08, -2.131982982071005E+07,
2461008.500000000, A.D. 2025-Nov-29 00:00:00.0000, 1.473108673461756E+08, -3.488147760268661E+08, -2.060910825016674E+07,
2461015.500000000, A.D. 2025-Dec-06 00:00:00.0000, 1.564314450189781E+08, -3.426978795505146E+08, -1.988004164427510E+07,
2461022.500000000, A.D. 2025-Dec-13 00:00:00.0000, 1.654105674905968E+08, -3.362711558730518E+08, -1.913300054755799E+07,
2461029.500000000, A.D. 2025-Dec-20 00:00:00.0000, 1.742377134228239E+08, -3.295355342735941E+08, -1.836838265588835E+07,
2461036.500000000, A.D. 2025-Dec-27 00:00:00.0000, 1.829021521199948E+08, -3.224922495884927E+08, -1.758661427849534E+07,
2461043.500000000, A.D. 2026-Jan-03 00:00:00.0000, 1.913929454012371E+08, -3.151428617065391E+08, -1.678815174622722E+07,
2461050.500000000, A.D. 2026-Jan-10 00:00:00.0000, 1.996989501935263E+08, -3.074892760711523E+08, -1.597348282824700E+07,
2461057.500000000, A.D. 2026-Jan-17 00:00:00.0000, 2.078088222029423E+08, -2.995337652817099E+08, -1.514312818149361E+07,
2461064.500000000, A.D. 2026-Jan-24 00:00:00.0000, 2.157110208743767E+08, -2.912789917601199E+08, -1.429764283258770E+07,
2461071.500000000, A.D. 2026-Jan-31 00:00:00.0000, 2.233938158048771E+08, -2.827280314637850E+08, -1.343761768843149E+07,
2461078.500000000, A.D. 2026-Feb-07 00:00:00.0000, 2.308452948272691E+08, -2.738843986605076E+08, -1.256368107869814E+07,
2461085.500000000, A.D. 2026-Feb-14 00:00:00.0000, 2.380533741884848E+08, -2.647520717269825E+08, -1.167650034668542E+07,
2461092.500000000, A.D. 2026-Feb-21 00:00:00.0000, 2.450058113945852E+08, -2.553355193320653E+08, -1.077678346726508E+07,
2461099.500000000, A.D. 2026-Feb-28 00:00:00.0000, 2.516902198270617E+08, -2.456397257773556E+08, -9.865280486319676E+06,
2461106.500000000, A.D. 2026-Mar-07 00:00:00.0000, 2.580940832613344E+08, -2.356702173475695E+08, -8.942784738375843E+06,
2461113.500000000, A.D. 2026-Mar-14 00:00:00.0000, 2.642047732553309E+08, -2.254330918748485E+08, -8.010134272064388E+06,
2461120.500000000, A.D. 2026-Mar-21 00:00:00.0000, 2.700095713902060E+08, -2.149350484618689E+08, -7.068213392522275E+06,
2461127.500000000, A.D. 2026-Mar-28 00:00:00.0000, 2.754956945567683E+08, -2.041834161505946E+08, -6.117954032525539E+06,
2461134.500000000, A.D. 2026-Apr-04 00:00:00.0000, 2.806503228851736E+08, -1.931861822861920E+08, -5.160336953698963E+06,
2461141.500000000, A.D. 2026-Apr-11 00:00:00.0000, 2.854606307879331E+08, -1.819520206849093E+08, -4.196392807758965E+06,
2461148.500000000, A.D. 2026-Apr-18 00:00:00.0000, 2.899138214627668E+08, -1.704903193243833E+08, -3.227203045952305E+06,
2461155.500000000, A.D. 2026-Apr-25 00:00:00.0000, 2.939971650745998E+08, -1.588112072146606E+08, -2.253900650283515E+06,
2461162.500000000, A.D. 2026-May-02 00:00:00.0000, 2.976980408005199E+08, -1.469255801123956E+08, -1.277670660075836E+06,
2461169.500000000, A.D. 2026-May-09 00:00:00.0000, 3.010039829865203E+08, -1.348451247348831E+08, -2.997504771181494E+05,
2461176.500000000, A.D. 2026-May-16 00:00:00.0000, 3.039027318828592E+08, -1.225823408800609E+08, 6.785700625220537E+05,
2461183.500000000, A.D. 2026-May-23 00:00:00.0000, 3.063822890627676E+08, -1.101505599313592E+08, 1.655948966378450E+06,
2461190.500000000, A.D. 2026-May-30 00:00:00.0000, 3.084309754542209E+08, -9.756395889602050E+07, 2.630992969427790E+06,
2461197.500000000, A.D. 2026-Jun-06 00:00:00.0000, 3.100374916091365E+08, -8.483757268480460E+07, 3.602258824920058E+06,
2461204.500000000, A.D. 2026-Jun-13 00:00:00.0000, 3.111909837423221E+08, -7.198730383008942E+07, 4.568254721037287E+06,
2461211.500000000, A.D. 2026-Jun-20 00:00:00.0000, 3.118811148313940E+08, -5.902992608503336E+07, 5.527442147031166E+06,
2461218.500000000, A.D. 2026-Jun-27 00:00:00.0000, 3.120981387872086E+08, -4.598308159869617E+07, 6.478238374121945E+06,
2461225.500000000, A.D. 2026-Jul-04 00:00:00.0000, 3.118329773056147E+08, -3.286527179253022E+07, 7.419019522402433E+06,
2461232.500000000, A.D. 2026-Jul-11 00:00:00.0000, 3.110772991605611E+08, -1.969584142811780E+07, 8.348124210339130E+06,
2461239.500000000, A.D. 2026-Jul-18 00:00:00.0000, 3.098236014271465E+08, -6.494955221197702E+06, 9.263857806010589E+06,
2461246.500000000, A.D. 2026-Jul-25 00:00:00.0000, 3.080652919413037E+08, 6.716433579448344E+06, 1.016449729719036E+07,
2461253.500000000, A.D. 2026-Aug-01 00:00:00.0000, 3.057967722122961E+08, 1.991662311819019E+07, 1.104829678324729E+07,
2461260.500000000, A.D. 2026-Aug-08 00:00:00.0000, 3.030135200576357E+08, 3.308321176214390E+07, 1.191349356787740E+07,
2461267.500000000, A.D. 2026-Aug-15 00:00:00.0000, 2.997121713156807E+08, 4.619315661323279E+07, 1.275831484099603E+07,
2461274.500000000, A.D. 2026-Aug-22 00:00:00.0000, 2.958905987136672E+08, 5.922284313468529E+07, 1.358098509723663E+07,
2461281.500000000, A.D. 2026-Aug-29 00:00:00.0000, 2.915479843764960E+08, 7.214816458475307E+07, 1.437973435633024E+07,
$$EOE